ISTSAT-1
1 60238U 24128D   24356.97031938  .00012622  00000-0  98034-3 0  9996
2 60238  61.9937 309.2151 0032357  16.2668 343.9453 15.01254241 24750
IONOSFERA-M 01
1 61735U 24199A   24356.95663411 -.00000208  00000-0 -73125-4 0  9996
2 61735  98.7913 222.5506 0000280 229.9973 130.1180 14.22644106 50609
IONOSFERA-M 02
1 61736U 24199B   24357.05933720  .00034665  00000-0  15620-1 0  9997
2 61736  98.7901 222.5768 0001179  70.6387 289.4917 14.22047756 53747
SITRO-AIS-16
1 61737U 24199C   24357.09150285  .00006041  00000-0  58560-3 0  9998
2 61737  97.3783 219.0004 0008859  91.6280 268.5955 14.92999098 50796
SITRO-AIS-15
1 61738U 24199D   24357.08898411  .00005983  00000-0  57895-3 0  9992
2 61738  97.3784 219.0037 0008588  91.8473 268.3731 14.93075472 50791
SITRO-AIS-21
1 61739U 24199E   24357.06944210  .00004829  00000-0  48575-3 0  9993
2 61739  97.3786 218.8804 0015247  84.2003 276.0955 14.91549609 50822
SITRO-AIS-22
1 61740U 24199F   24357.06914232  .00004913  00000-0  49398-3 0  9994
2 61740  97.3788 218.8826 0015315  85.2823 275.0145 14.91563702 50973
SITRO-AIS-24
1 61741U 24199G   24357.06793410  .00004572  00000-0  45974-3 0  9995
2 61741  97.3791 218.8848 0015250  86.6643 273.6321 14.91593197 50943
SITRO-AIS-23
1 61742U 24199H   24357.06748186  .00004995  00000-0  50150-3 0  9997
2 61742  97.3789 218.8848 0015144  86.0911 274.2040 14.91614525 50826
SITRO-AIS-13
1 61743U 24199J   24357.08579936  .00006146  00000-0  59294-3 0  9993
2 61743  97.3783 219.0079 0008339  92.6392 267.5783 14.93186038 50952
CSTP-2.11
1 61744U 24199K   24357.08055186  .00020687  00000-0  80177-3 0  9990
2 61744  97.3812 221.2621 0016206  65.2945 294.9978 15.26048980 51047
POLYTECH UNIVERSE-5 (RS70S)
1 61745U 24199L   24357.07727085  .00022471  00000-0  86556-3 0  9994
2 61745  97.3783 221.2479 0013838  72.6345 287.6405 15.26270366 54187
COLIBRI-S (RS67S)
1 61746U 24199M   24357.08524895  .00018161  00000-0  70982-3 0  9997
2 61746  97.3808 221.2531 0016119  66.4884 293.8046 15.25796744 54181
POLYTECH UNIVERSE-4 (RS71S)
1 61747U 24199N   24357.08429175  .00016939  00000-0  66302-3 0  9995
2 61747  97.3807 221.2533 0016019  65.0631 295.2269 15.25763972 54187
SITRO-AIS-44
1 61748U 24199P   24357.07351262  .00025097  00000-0  96071-3 0  9997
2 61748  97.3782 221.2530 0013695  71.9709 288.3020 15.26457411 54183
VIZARD-ION (RS68S)
1 61749U 24199Q   24357.07740304  .00020973  00000-0  80974-3 0  9990
2 61749  97.3811 221.2641 0015824  64.7540 295.5336 15.26179051 54180
MTUSI-1
1 61750U 24199R   24357.09663662  .00021029  00000-0  82768-3 0  9991
2 61750  97.3784 221.2231 0016266  74.9114 285.3922 15.25529870 54182
VLADIVOSTOK-1
1 61751U 24199S   24357.10179523  .00013176  00000-0  52915-3 0  9997
2 61751  97.3784 221.2164 0014675  74.8947 285.3913 15.24981152 54198
SITRO-AIS-14
1 61752U 24199T   24357.08728856  .00005589  00000-0  54044-3 0  9998
2 61752  97.3784 219.0057 0008439  92.2620 267.9567 14.93126210 54099
HORS-3 (RS81S)
1 61753U 24199U   24357.08758693  .00021599  00000-0  84319-3 0  9998
2 61753  97.3783 221.2345 0014589  73.2599 287.0239 15.25822972 54184
HORS-4 (RS82S)
1 61754U 24199V   24357.08327873  .00022279  00000-0  86338-3 0  9990
2 61754  97.3781 221.2398 0014792  73.0074 287.2784 15.26057678 54184
SITRO-AIS-43
1 61755U 24199W   24357.07231975  .00024437  00000-0  93443-3 0  9990
2 61755  97.3782 221.2542 0013639  71.9298 288.3425 15.26499177 54189
SITRO-AIS-42
1 61756U 24199X   24357.07181271  .00024580  00000-0  93924-3 0  9997
2 61756  97.3783 221.2549 0013623  72.1279 288.1444 15.26521369 54181
HORIZON (RS59S)
1 61757U 24199Y   24357.07209032  .00028839  00000-0  10985-2 0  9990
2 61757  97.3807 221.2692 0015979  64.1403 296.1481 15.26560554 54183
SITRO-AIS-20
1 61758U 24199Z   24357.01660336  .00005852  00000-0  56386-3 0  9999
2 61758  97.3781 218.9460 0008100  94.2179 265.9967 14.93254138 54086
SITRO-AIS-19
1 61759U 24199AA  24357.08249519  .00005883  00000-0  56634-3 0  9993
2 61759  97.3782 219.0107 0008028  95.6195 264.5941 14.93286902 54092
SITRO-AIS-41
1 61760U 24199AB  24357.07229054  .00024836  00000-0  95095-3 0  9999
2 61760  97.3784 221.2545 0013476  72.9496 287.3218 15.26454133 54182
2024-199AC
1 61761U 24199AC  24357.07324325  .00022078  00000-0  84902-3 0  9998
2 61761  97.3783 221.2527 0013265  73.6436 286.6260 15.26337269 54189
ARCTICSAT-1 (RS74S)
1 61762U 24199AD  24357.06542258  .00026971  00000-0  10190-2 0  9998
2 61762  97.3806 221.2775 0015823  62.8502 297.4348 15.26847475 54189
SIT-HSE
1 61763U 24199AE  24357.06932427  .00022970  00000-0  87665-3 0  9997
2 61763  97.3782 221.2586 0013281  72.9473 287.3220 15.26580166 54186
SIT-2086
1 61764U 24199AF  24357.13194780  .00023443  00000-0  89200-3 0  9991
2 61764  97.3782 221.3278 0012987  73.3898 286.8766 15.26680250 51039
MORDOVIA-IOT (RS50S)
1 61765U 24199AG  24357.11909216  .00034628  00000-0  12801-2 0  9997
2 61765  97.3807 221.3592 0015765  60.8226 299.4589 15.27515203 51040
RUZAEVKA-390 (RS44S)
1 61766U 24199AH  24357.12038113  .00031823  00000-0  11821-2 0  9993
2 61766  97.3805 221.3550 0015558  60.7321 299.5472 15.27376937 51049
2024-199AJ (? AHMAT-2)
1 61767U 24199AJ  24357.10968782  .00036651  00000-0  13380-2 0  9992
2 61767  97.3801 221.3664 0015421  58.7697 301.5051 15.27921554 51042
HOD-HOD
1 61768U 24199AK  24357.06223010  .00018793  00000-0  71938-3 0  9997
2 61768  97.3788 221.2732 0011186  77.8358 282.4133 15.26547106 51035
KOSAR
1 61769U 24199AL  24357.12285586  .00021266  00000-0  80789-3 0  9994
2 61769  97.3784 221.3422 0011089  78.1373 282.1109 15.26774664 51044
2024-199AM
1 61770U 24199AM  24357.00855759  .00124485  00000-0  36176-2 0  9995
2 61770  97.3616 221.3828 0020162  68.8491 291.4905 15.34773227 51049
SITRO-AIS-48
1 61771U 24199AN  24357.10849811  .00021692  00000-0  86100-3 0  9998
2 61771  97.3756 221.1908 0017081  82.0074 278.3102 15.25229256 51033
HYPERVIEW-1G (RS66S)
1 61772U 24199AP  24357.10472328  .00026405  00000-0  10372-2 0  9998
2 61772  97.3781 221.2108 0018760  75.5686 284.7633 15.25508834 51038
SITRO-AIS-47
1 61773U 24199AQ  24357.10944879  .00022903  00000-0  90946-3 0  9999
2 61773  97.3759 221.1908 0017175  82.4151 277.9038 15.25202711 51032
SITRO-AIS-46
1 61774U 24199AR  24357.10950494  .00024124  00000-0  95668-3 0  9993
2 61774  97.3758 221.1903 0017364  82.1423 278.1786 15.25233097 51030
CSTP-2.2
1 61775U 24199AS  24357.12143252  .00014631  00000-0  59564-3 0  9999
2 61775  97.3784 221.1912 0018738  76.6874 283.6452 15.24435955 51031
SITRO-AIS-40
1 61776U 24199AT  24357.11069738  .00024001  00000-0  95278-3 0  9999
2 61776  97.3759 221.1899 0017506  82.3531 277.9694 15.25197410 54189
CSTP-2.1
1 61777U 24199AU  24357.12198083  .00014242  00000-0  57957-3 0  9995
2 61777  97.3784 221.1904 0018920  77.2066 283.1285 15.24453533 51038
SITRO-AIS-39
1 61778U 24199AV  24357.11382396  .00022490  00000-0  89701-3 0  9993
2 61778  97.3756 221.1852 0017486  83.0475 277.2751 15.25053829 51032
ALTAIR (RS65S)
1 61779U 24199AW  24357.05851785  .00013830  00000-0  56507-3 0  9996
2 61779  97.3784 221.1229 0019059  77.1726 283.1639 15.24322845 54178
SITRO-AIS-37
1 61780U 24199AX  24357.11501268  .00023267  00000-0  92834-3 0  9991
2 61780  97.3764 221.1888 0017827  82.8594 277.4670 15.25028251 51034
ASRTU-1 (RS64S)
1 61781U 24199AY  24357.12973749  .00013886  00000-0  57117-3 0  9991
2 61781  97.3786 221.1809 0019206  77.0261 283.3120 15.24093255 51033
TUSUR GO (RS78S)
1 61782U 24199AZ  24357.11529018  .00026157  00000-0  10380-2 0  9992
2 61782  97.3783 221.1983 0019999  74.9993 285.3456 15.25147697 51036
ZIMSAT-2 (Z2AS)
1 61783U 24199BA  24357.10717534  .00034423  00000-0  13367-2 0  9997
2 61783  97.3780 221.2060 0020635  74.0616 286.2894 15.25800550 54182
SAMSAT-IONOSPHERE (RS75S)
1 61784U 24199BB  24357.11819321  .00023406  00000-0  93608-3 0  9992
2 61784  97.3781 221.1941 0019751  75.8568 284.4863 15.24914600 54180
RTU MIREA-1 (RS51S)
1 61785U 24199BC  24357.11725934  .00023815  00000-0  95073-3 0  9991
2 61785  97.3782 221.1955 0019639  75.2731 285.0681 15.24973601 51030
SITRO-AIS-38
1 61786U 24199BD  24357.11619701  .00023133  00000-0  92443-3 0  9997
2 61786  97.3759 221.1841 0017763  83.8138 276.5123 15.24979042 51032
2024-199BE (? SWSU-60)
1 61787U 24199BE  24357.06403271  .00012613  00000-0  51937-3 0  9999
2 61787  97.3783 221.1157 0019385  77.1531 283.1870 15.24074798 54170
SITRO-AIS-45
1 61788U 24199BF  24357.04592304  .00023070  00000-0  91814-3 0  9991
2 61788  97.3752 221.1205 0017406  82.9240 277.3976 15.25122138 51008
SITRO-AIS-17
1 61789U 24199BG  24357.08173602  .00005745  00000-0  55281-3 0  9999
2 61789  97.3786 219.0144 0008164  98.6351 261.5795 14.93311689 50998
SITRO-AIS-18
1 61790U 24199BH  24357.08207414  .00006053  00000-0  58243-3 0  9994
2 61790  97.3783 219.0115 0008032  96.8097 263.4038 14.93296744 50991
YOMOGI
1 62298U 98067XE  24356.80919167  .00094434  00000-0  14578-2 0  9999
2 62298  51.6366 105.6449 0012124 359.7843   0.3140 15.53267241  1931
LIGNOSAT
1 90001U          24345.40000000  .00000000  00000-0  34741-3 0    07
2 90001  51.6375 162.4936 0008367 294.8288 347.2202 15.51348604    02
PLEIADES-ORPHEUS
1 98724C 24248D   24356.55167141  .00080857  00000+0  38463-2 0    06
2 98724  44.9996   0.5278 0003834  18.1359 115.7653 15.18415623    15
CROCUBE
1 98799U          24356.55243530  .00075084  00000+0  37160-2 0    04
2 98799  45.0011   0.5205 0005283 101.7631  36.3233 15.17035563    11
LASARSAT
1 98797U          24356.55243530  .00075084  00000+0  37160-2 0    02
2 98797  45.0011   0.5205 0005283 101.7631  36.3233 15.17035563    19
